[{"OBJECT_NAME":"LEMUR-2-DEMBITZ","OBJECT_ID":"2017-042T","EPOCH":"2026-03-09T11:23:53.232288","MEAN_MOTION":15.26947128,"ECCENTRICITY":0.00069617,"INCLINATION":97.3807,"RA_OF_ASC_NODE":250.9241,"ARG_OF_PERICENTER":17.1421,"MEAN_ANOMALY":343.0051,"EPHEMERIS_TYPE":0,"CLASSIFICATION_TYPE":"U","NORAD_CAT_ID":42842,"ELEMENT_SET_NO":999,"REV_AT_EPOCH":47311,"BSTAR":0.00076560825,"MEAN_MOTION_DOT":0.00020231,"MEAN_MOTION_DDOT":0},{"OBJECT_NAME":"STARLINK-36409","OBJECT_ID":"2026-005C","EPOCH":"2026-03-09T11:38:31.155648","MEAN_MOTION":15.27606185,"ECCENTRICITY":0.00018205,"INCLINATION":42.9972,"RA_OF_ASC_NODE":239.2756,"ARG_OF_PERICENTER":274.16,"MEAN_ANOMALY":85.9044,"EPHEMERIS_TYPE":0,"CLASSIFICATION_TYPE":"U","NORAD_CAT_ID":67406,"ELEMENT_SET_NO":999,"REV_AT_EPOCH":866,"BSTAR":0.0015357532,"MEAN_MOTION_DOT":0.00042276,"MEAN_MOTION_DDOT":0}]
