LEMUR-2-DEMBITZ         
1 42842U 17042T   26068.47492167  .00020231  00000+0  76561-3 0  9991
2 42842  97.3807 250.9241 0006961  17.1421 343.0051 15.26947128473114
STARLINK-36409          
1 67406U 26005C   26068.48508282  .00042276  00000+0  15358-2 0  9999
2 67406  42.9972 239.2756 0001820 274.1600  85.9044 15.27606185  8664
